From: horizons@ssd.jpl.nasa.gov (Horizons Ephemeris System)
Subject: [Horizons] SMALL BODY #C(500@10)_T(6P/d'Arrest) (1/1)
Date: March 1, 2021 at 1:22:45 PM PST

Automated mail xmit by MAIL_REQUEST, PID= 2301 Mon Mar  1 13:22:45 2021
++++++++++++++++++++++++++++++++ (part 1 of 1)  +++++++++++++++++++++++++++++++
*******************************************************************************
JPL/HORIZONS                     6P/d'Arrest               2021-Mar-01 13:22:45
Rec #:90000145 (+COV) Soln.date: 2016-Feb-23_14:43:35   # obs: 2194 (1987-2016)

IAU76/J2000 helio. ecliptic osc. elements (au, days, deg., period=Julian yrs):

 EPOCH=  2457200.5 ! 2015-Jun-27.0000000 (TDB)    RMSW= n.a.
  EC= .6114219228700193   QR= 1.361454546530219   TP= 2457083.9186997386
  OM= 138.9337127711251   W= 178.1152293178701    IN= 19.48168162749337
  A= 3.503683369339459    MA= 17.5204675326974    ADIST= 5.6459121921487
  PER= 6.5583636207155    N= .150285397           ANGMOM= .025479309
  DAN= 5.64111            DDN= 1.36173            L= 317.1567771
  B= .6284789             MOID= .34828699         TP= 2015-Mar-02.4186997386

Comet physical (GM= km^3/s^2; RAD= km):
  GM= n.a.                RAD= 1.6
  M1=  14.8     M2=  n.a.     k1=  8.     k2= n.a.     PHCOF= n.a.

Comet non-gravitational force model (AMRAT=m^2/kg;A1-A3=au/d^2;DT=days;R0=au):
  AMRAT=  0.                                      DT=  108.8993
  A1= 3.394187688828E-9   A2= -8.903327398002E-11 A3= -6.286843121052E-10
Standard model:
  ALN=  .1112620426   NK=  4.6142   NM=  2.15     NN=  5.093    R0=  2.808

COMET comments 
1: soln ref.= JPL#K155/3, data arc: 1987-03-31 to 2016-01-14
2: k1=8.;
*******************************************************************************


*******************************************************************************
Ephemeris / MAIL_REQUEST Mon Mar  1 13:22:45 2021 Pasadena, USA  / Horizons
*******************************************************************************
Target body name: 6P/d'Arrest                     {source: JPL#K155/3}
Center body name: Sun (10)                        {source: DE431}
Center-site name: BODY CENTER
*******************************************************************************
Start time      : A.D. 1990-Jan-01 00:00:00.0000 TDB
Stop  time      : A.D. 2020-Dec-31 00:00:00.0000 TDB
Step-size       : 10080 minutes
*******************************************************************************
Center geodetic : 0.00000000,0.00000000,0.0000000 {E-lon(deg),Lat(deg),Alt(km)}
Center cylindric: 0.00000000,0.00000000,0.0000000 {E-lon(deg),Dxy(km),Dz(km)}
Center radii    : 696000.0 x 696000.0 x 696000.0 k{Equator, meridian, pole}    
Small perturbers: Yes                             {source: SB431-N16}
Output units    : AU-D
Output type     : GEOMETRIC cartesian states
Output format   : 6 (LT, range, and range-rate)
Reference frame : Ecliptic of J2000.0
*******************************************************************************
Initial IAU76/J2000 heliocentric ecliptic osculating elements (au, days, deg.):
 EPOCH=  2457200.5 ! 2015-Jun-27.0000000 (TDB)    RMSW= n.a.                  
  EC= .6114219228700193   QR= 1.361454546530219   TP= 2457083.9186997386      
  OM= 138.9337127711251   W= 178.1152293178701    IN= 19.48168162749337       
 Equivalent ICRF heliocentric equatorial cartesian coordinates (au, au/d):
  X= 1.544130507524933E+00  Y= 1.026021103737487E+00  Z=-1.971482646301759E-01
 VX=-1.418848123080749E-03 VY= 1.498002114279918E-02 VZ= 2.562310773591697E-03
Comet physical (GM= km^3/s^2; RAD= km):                                        
  GM= n.a.                RAD= 1.6                                            
  M1=  14.8     M2=  n.a.     k1=  8.     k2= n.a.     PHCOF= n.a.            
Comet non-gravitational force model (AMRAT=m^2/kg;A1-A3=au/d^2;DT=days;R0=au): 
  AMRAT=  0.                                      DT=  108.8993               
  A1= 3.394187688828E-9   A2= -8.903327398002E-11 A3= -6.286843121052E-10     
Standard model:                                                               
  ALN=  .1112620426   NK=  4.6142   NM=  2.15     NN=  5.093    R0=  2.808    
*******************************************************************************
           JDTDB,            Calendar Date (TDB),                     LT,                     RG,                     RR,
**************************************************************************************************************************
$$SOE
2450356.500000000, A.D. 1996-Sep-30 00:00:00.0000,  2.225665306595673E-02,  3.853620019663084E+00,  5.045344916330741E-03,
2450363.500000000, A.D. 1996-Oct-07 00:00:00.0000,  2.245940284964607E-02,  3.888725056484754E+00,  4.984731618978507E-03,
2450370.500000000, A.D. 1996-Oct-14 00:00:00.0000,  2.265971016505510E-02,  3.923407193033216E+00,  4.924517088746508E-03,
2450377.500000000, A.D. 1996-Oct-21 00:00:00.0000,  2.285759121210294E-02,  3.957669234237509E+00,  4.864704702836620E-03,
2450384.500000000, A.D. 1996-Oct-28 00:00:00.0000,  2.305306227694930E-02,  3.991513999958773E+00,  4.805295612405173E-03,
2450391.500000000, A.D. 1996-Nov-04 00:00:00.0000,  2.324613967043275E-02,  4.024944314331165E+00,  4.746290010592443E-03,
2450398.500000000, A.D. 1996-Nov-11 00:00:00.0000,  2.343683969842054E-02,  4.057963000628078E+00,  4.687687468689940E-03,
2450405.500000000, A.D. 1996-Nov-18 00:00:00.0000,  2.362517863709608E-02,  4.090572876983313E+00,  4.629486945041596E-03,
2450412.500000000, A.D. 1996-Nov-25 00:00:00.0000,  2.381117270808605E-02,  4.122776752084454E+00,  4.571686783767133E-03,
2450419.500000000, A.D. 1996-Dec-02 00:00:00.0000,  2.399483805380521E-02,  4.154577420903988E+00,  4.514284722388818E-03,
2450426.500000000, A.D. 1996-Dec-09 00:00:00.0000,  2.417619071265093E-02,  4.185977660404328E+00,  4.457277868094035E-03,
2450433.500000000, A.D. 1996-Dec-16 00:00:00.0000,  2.435524659164739E-02,  4.216980224801332E+00,  4.400662587529834E-03,
2450440.500000000, A.D. 1996-Dec-23 00:00:00.0000,  2.453202143357478E-02,  4.247587839872897E+00,  4.344434397698043E-03,
2450447.500000000, A.D. 1996-Dec-30 00:00:00.0000,  2.470653079226462E-02,  4.277803198681466E+00,  4.288588698909009E-03,
2450454.500000000, A.D. 1997-Jan-06 00:00:00.0000,  2.487879006430486E-02,  4.307628967063605E+00,  4.233122472111137E-03,
2450461.500000000, A.D. 1997-Jan-13 00:00:00.0000,  2.504881453975935E-02,  4.337067792411804E+00,  4.178032930038976E-03,
2450468.500000000, A.D. 1997-Jan-20 00:00:00.0000,  2.521661935937704E-02,  4.366122296265476E+00,  4.123315440445016E-03,
2450475.500000000, A.D. 1997-Jan-27 00:00:00.0000,  2.538221945379183E-02,  4.394795063783743E+00,  4.068964468213149E-03,
2450482.500000000, A.D. 1997-Feb-03 00:00:00.0000,  2.554562952739679E-02,  4.423088640953345E+00,  4.014974411671273E-03,
2450489.500000000, A.D. 1997-Feb-10 00:00:00.0000,  2.570686405902739E-02,  4.451005534706927E+00,  3.961339709045476E-03,
2450496.500000000, A.D. 1997-Feb-17 00:00:00.0000,  2.586593730270720E-02,  4.478548213052169E+00,  3.908054793053178E-03,
2450503.500000000, A.D. 1997-Feb-24 00:00:00.0000,  2.602286328661661E-02,  4.505719104893207E+00,  3.855114053109902E-03,
2450510.500000000, A.D. 1997-Mar-03 00:00:00.0000,  2.617765581059441E-02,  4.532520599598063E+00,  3.802511794408278E-03,
2450517.500000000, A.D. 1997-Mar-10 00:00:00.0000,  2.633032844109687E-02,  4.558955046125824E+00,  3.750242142010418E-03,
2450524.500000000, A.D. 1997-Mar-17 00:00:00.0000,  2.648089450012875E-02,  4.585024751110105E+00,  3.698298837784153E-03,
2450531.500000000, A.D. 1997-Mar-24 00:00:00.0000,  2.662936704725573E-02,  4.610731975744613E+00,  3.646675226007718E-03,
2450538.500000000, A.D. 1997-Mar-31 00:00:00.0000,  2.677575888454992E-02,  4.636078936639423E+00,  3.595365581043326E-03,
2450545.500000000, A.D. 1997-Apr-07 00:00:00.0000,  2.692008262618678E-02,  4.661067817871309E+00,  3.544366184641976E-03,
2450552.500000000, A.D. 1997-Apr-14 00:00:00.0000,  2.706235073569536E-02,  4.685700777433432E+00,  3.493672824063817E-03,
2450559.500000000, A.D. 1997-Apr-21 00:00:00.0000,  2.720257547514464E-02,  4.709979938437218E+00,  3.443279901810556E-03,
2450566.500000000, A.D. 1997-Apr-28 00:00:00.0000,  2.734076887244883E-02,  4.733907383451458E+00,  3.393181585443440E-03,
2450573.500000000, A.D. 1997-May-05 00:00:00.0000,  2.747694272395981E-02,  4.757485154951163E+00,  3.343372269919809E-03,
2450580.500000000, A.D. 1997-May-12 00:00:00.0000,  2.761110860417155E-02,  4.780715256997841E+00,  3.293846574274753E-03,
2450587.500000000, A.D. 1997-May-19 00:00:00.0000,  2.774327787344729E-02,  4.803599656577411E+00,  3.244599276139579E-03,
2450594.500000000, A.D. 1997-May-26 00:00:00.0000,  2.787346168321054E-02,  4.826140284499001E+00,  3.195625251007674E-03,
2450601.500000000, A.D. 1997-Jun-02 00:00:00.0000,  2.800167097835598E-02,  4.848339035812383E+00,  3.146919387225601E-03,
2450608.500000000, A.D. 1997-Jun-09 00:00:00.0000,  2.812791649466052E-02,  4.870197769359702E+00,  3.098476410489992E-03,
2450615.500000000, A.D. 1997-Jun-16 00:00:00.0000,  2.825220874663913E-02,  4.891718305672793E+00,  3.050290610991322E-03,
2450622.500000000, A.D. 1997-Jun-23 00:00:00.0000,  2.837455801171263E-02,  4.912902424231906E+00,  3.002356156226690E-03,
2450629.500000000, A.D. 1997-Jun-30 00:00:00.0000,  2.849497435944394E-02,  4.933751868527818E+00,  2.954668909249117E-03,
2450636.500000000, A.D. 1997-Jul-07 00:00:00.0000,  2.861346772893889E-02,  4.954268359463356E+00,  2.907226096741753E-03,
2450643.500000000, A.D. 1997-Jul-14 00:00:00.0000,  2.873004792576108E-02,  4.974453594819224E+00,  2.860023653212948E-03,
2450650.500000000, A.D. 1997-Jul-21 00:00:00.0000,  2.884472456616305E-02,  4.994309239597937E+00,  2.813056492353261E-03,
2450657.500000000, A.D. 1997-Jul-28 00:00:00.0000,  2.895750705772792E-02,  5.013836922672023E+00,  2.766319462611799E-03,
